[{"OBJECT_NAME":"STARLINK-31992","OBJECT_ID":"2024-111H","EPOCH":"2026-03-09T05:37:48.124992","MEAN_MOTION":15.3019184,"ECCENTRICITY":9.572e-5,"INCLINATION":53.16,"RA_OF_ASC_NODE":77.7534,"ARG_OF_PERICENTER":85.9323,"MEAN_ANOMALY":274.1787,"EPHEMERIS_TYPE":0,"CLASSIFICATION_TYPE":"U","NORAD_CAT_ID":60023,"ELEMENT_SET_NO":999,"REV_AT_EPOCH":9897,"BSTAR":4.3348426e-5,"MEAN_MOTION_DOT":9.25e-6,"MEAN_MOTION_DDOT":0},{"OBJECT_NAME":"NOAA 16 DEB","OBJECT_ID":"2000-055RJ","EPOCH":"2026-03-09T05:33:49.273920","MEAN_MOTION":15.3473827,"ECCENTRICITY":0.00201356,"INCLINATION":98.8603,"RA_OF_ASC_NODE":346.753,"ARG_OF_PERICENTER":100.321,"MEAN_ANOMALY":260.03,"EPHEMERIS_TYPE":0,"CLASSIFICATION_TYPE":"U","NORAD_CAT_ID":42366,"ELEMENT_SET_NO":999,"REV_AT_EPOCH":53004,"BSTAR":0.012036716,"MEAN_MOTION_DOT":0.00430695,"MEAN_MOTION_DDOT":0}]
